{"type": "FeatureCollection", "features": [ {"type": "Feature", "properties": {"norad_id": 31073, "name": "FENGYUN 1C DEB", "group": "fengyun-1c-debris", "lat": 79.14347047310652, "lon": 127.74190181848489, "alt_km": 823.0645656996167, "timestamp": "2025-12-02T10:50:47.554471+00:00", "meta": {"OBJECT_NAME": "FENGYUN 1C DEB", "OBJECT_ID": "1999-025BFT", "EPOCH": "2025-12-01T12:32:28.380480", "MEAN_MOTION": 14.24695175, "ECCENTRICITY": 0.0045966, "INCLINATION": 99.221, "RA_OF_ASC_NODE": 184.656, "ARG_OF_PERICENTER": 317.3507, "MEAN_ANOMALY": 42.4106, "EPHEMERIS_TYPE": 0, "CLASSIFICATION_TYPE": "U", "NORAD_CAT_ID": 31073, "ELEMENT_SET_NO": 999, "REV_AT_EPOCH": 96923, "BSTAR": 0.0012263246, "MEAN_MOTION_DOT": 2.837e-05, "MEAN_MOTION_DDOT": 0}, "tle": {"line1": "1 31073U 99025BFT 25335.52255070  .00002837  00000+0  12263-2 0  9998", "line2": "2 31073  99.2210 184.6560 0045966 317.3507  42.4106 14.24695175969235"}}, "geometry": {"type": "Point", "coordinates": [127.74190181848489, 79.14347047310652]}}, {"type": "Feature", "properties": {"norad_id": 31074, "name": "FENGYUN 1C DEB", "group": "fengyun-1c-debris", "lat": 45.92202127159699, "lon": -117.95583200620717, "alt_km": 865.4645820155329, "timestamp": "2025-12-02T10:50:47.554481+00:00", "meta": {"OBJECT_NAME": "FENGYUN 1C DEB", "OBJECT_ID": "1999-025BFU", "EPOCH": "2025-11-27T04:57:35.433504", "MEAN_MOTION": 14.14011677, "ECCENTRICITY": 0.00904002, "INCLINATION": 98.9571, "RA_OF_ASC_NODE": 246.162, "ARG_OF_PERICENTER": 309.5109, "MEAN_ANOMALY": 49.8096, "EPHEMERIS_TYPE": 0, "CLASSIFICATION_TYPE": "U", "NORAD_CAT_ID": 31074, "ELEMENT_SET_NO": 999, "REV_AT_EPOCH": 95360, "BSTAR": 0.002622613, "MEAN_MOTION_DOT": 5.14e-05, "MEAN_MOTION_DDOT": 0}, "tle": {"line1": "1 31074U 99025BFU 25331.20666011  .00005140  00000+0  26226-2 0  9995", "line2": "2 31074  98.9571 246.1620 0090400 309.5109  49.8096 14.14011677953608"}}, "geometry": {"type": "Point", "coordinates": [-117.95583200620717, 45.92202127159699]}}, {"type": "Feature", "properties": {"norad_id": 31078, "name": "FENGYUN 1C DEB", "group": "fengyun-1c-debris", "lat": 79.39644918020984, "lon": -19.690822569100558, "alt_km": 816.1987283069066, "timestamp": "2025-12-02T10:50:47.554490+00:00", "meta": {"OBJECT_NAME": "FENGYUN 1C DEB", "OBJECT_ID": "1999-025BFY", "EPOCH": "2025-11-30T23:34:28.078752", "MEAN_MOTION": 14.22024043, "ECCENTRICITY": 0.01167401, "INCLINATION": 98.8697, "RA_OF_ASC_NODE": 35.355, "ARG_OF_PERICENTER": 182.5527, "MEAN_ANOMALY": 303.5221, "EPHEMERIS_TYPE": 0, "CLASSIFICATION_TYPE": "U", "NORAD_CAT_ID": 31078, "ELEMENT_SET_NO": 999, "REV_AT_EPOCH": 96725, "BSTAR": 0.00067957769, "MEAN_MOTION_DOT": 1.565e-05, "MEAN_MOTION_DDOT": 0}, "tle": {"line1": "1 31078U 99025BFY 25334.98226943  .00001565  00000+0  67958-3 0  9998", "line2": "2 31078  98.8697  35.3550 0116740 182.5527 303.5221 14.22024043967255"}}, "geometry": {"type": "Point", "coordinates": [-19.690822569100558, 79.39644918020984]}}, {"type": "Feature", "properties": {"norad_id": 31081, "name": "FENGYUN 1C DEB", "group": "fengyun-1c-debris", "lat": 78.90210525966407, "lon": -58.705613854125666, "alt_km": 898.8484430398539, "timestamp": "2025-12-02T10:50:47.554500+00:00", "meta": {"OBJECT_NAME": "FENGYUN 1C DEB", "OBJECT_ID": "1999-025BGB", "EPOCH": "2025-12-01T19:56:02.256288", "MEAN_MOTION": 14.06293884, "ECCENTRICITY": 0.0047122, "INCLINATION": 98.7711, "RA_OF_ASC_NODE": 352.6058, "ARG_OF_PERICENTER": 262.2973, "MEAN_ANOMALY": 276.9466, "EPHEMERIS_TYPE": 0, "CLASSIFICATION_TYPE": "U", "NORAD_CAT_ID": 31081, "ELEMENT_SET_NO": 999, "REV_AT_EPOCH": 96307, "BSTAR": -2.5427e-05, "MEAN_MOTION_DOT": -8.5e-07, "MEAN_MOTION_DDOT": 0}, "tle": {"line1": "1 31081U 99025BGB 25335.83058167 -.00000085  00000+0 -25427-4 0  9992", "line2": "2 31081  98.7711 352.6058 0047122 262.2973 276.9466 14.06293884963074"}}, "geometry": {"type": "Point", "coordinates": [-58.705613854125666, 78.90210525966407]}}, {"type": "Feature", "properties": {"norad_id": 31083, "name": "FENGYUN 1C DEB", "group": "fengyun-1c-debris", "lat": -58.730198115677084, "lon": -101.08485830657999, "alt_km": 698.1810721735064, "timestamp": "2025-12-02T10:50:47.554511+00:00", "meta": {"OBJECT_NAME": "FENGYUN 1C DEB", "OBJECT_ID": "1999-025BGD", "EPOCH": "2025-12-02T00:09:50.780736", "MEAN_MOTION": 14.61552683, "ECCENTRICITY": 0.0030502, "INCLINATION": 98.6473, "RA_OF_ASC_NODE": 92.9625, "ARG_OF_PERICENTER": 339.2164, "MEAN_ANOMALY": 80.3194, "EPHEMERIS_TYPE": 0, "CLASSIFICATION_TYPE": "U", "NORAD_CAT_ID": 31083, "ELEMENT_SET_NO": 999, "REV_AT_EPOCH": 97553, "BSTAR": 0.0030604, "MEAN_MOTION_DOT": 0.00015273, "MEAN_MOTION_DDOT": 0}, "tle": {"line1": "1 31083U 99025BGD 25336.00683774  .00015273  00000+0  30604-2 0  9996", "line2": "2 31083  98.6473  92.9625 0030502 339.2164  80.3194 14.61552683975530"}}, "geometry": {"type": "Point", "coordinates": [-101.08485830657999, -58.730198115677084]}}, {"type": "Feature", "properties": {"norad_id": 31085, "name": "FENGYUN 1C DEB", "group": "fengyun-1c-debris", "lat": 80.99655969912526, "lon": 90.00145705609545, "alt_km": 736.08813456796, "timestamp": "2025-12-02T10:50:47.554521+00:00", "meta": {"OBJECT_NAME": "FENGYUN 1C DEB", "OBJECT_ID": "1999-025BGF", "EPOCH": "2025-12-01T12:51:58.320288", "MEAN_MOTION": 14.30299074, "ECCENTRICITY": 0.00877259, "INCLINATION": 98.9848, "RA_OF_ASC_NODE": 175.9567, "ARG_OF_PERICENTER": 50.4377, "MEAN_ANOMALY": 5.3032, "EPHEMERIS_TYPE": 0, "CLASSIFICATION_TYPE": "U", "NORAD_CAT_ID": 31085, "ELEMENT_SET_NO": 999, "REV_AT_EPOCH": 97556, "BSTAR": 0.00012031391, "MEAN_MOTION_DOT": 2.79e-06, "MEAN_MOTION_DDOT": 0}, "tle": {"line1": "1 31085U 99025BGF 25335.53609167  .00000279  00000+0  12031-3 0  9994", "line2": "2 31085  98.9848 175.9567 0087725  50.4377   5.3032 14.30299074975564"}}, "geometry": {"type": "Point", "coordinates": [90.00145705609545, 80.99655969912526]}}, {"type": "Feature", "properties": {"norad_id": 31087, "name": "FENGYUN 1C DEB", "group": "fengyun-1c-debris", "lat": -18.092887083447064, "lon": 174.41770254856021, "alt_km": 766.6920238313896, "timestamp": "2025-12-02T10:50:47.554531+00:00", "meta": {"OBJECT_NAME": "FENGYUN 1C DEB", "OBJECT_ID": "1999-025BGH", "EPOCH": "2025-12-01T13:15:15.731424", "MEAN_MOTION": 14.60131159, "ECCENTRICITY": 0.01727426, "INCLINATION": 98.104, "RA_OF_ASC_NODE": 356.2059, "ARG_OF_PERICENTER": 326.1596, "MEAN_ANOMALY": 187.3241, "EPHEMERIS_TYPE": 0, "CLASSIFICATION_TYPE": "U", "NORAD_CAT_ID": 31087, "ELEMENT_SET_NO": 999, "REV_AT_EPOCH": 98606, "BSTAR": 0.00088421007, "MEAN_MOTION_DOT": 5.196e-05, "MEAN_MOTION_DDOT": 0}, "tle": {"line1": "1 31087U 99025BGH 25335.55226541  .00005196  00000+0  88421-3 0  9998", "line2": "2 31087  98.1040 356.2059 0172742 326.1596 187.3241 14.60131159986064"}}, "geometry": {"type": "Point", "coordinates": [174.41770254856021, -18.092887083447064]}}, {"type": "Feature", "properties": {"norad_id": 31088, "name": "FENGYUN 1C DEB", "group": "fengyun-1c-debris", "lat": -11.47130335906272, "lon": -146.09726876814346, "alt_km": 804.5004718744785, "timestamp": "2025-12-02T10:50:47.554542+00:00", "meta": {"OBJECT_NAME": "FENGYUN 1C DEB", "OBJECT_ID": "1999-025BGJ", "EPOCH": "2025-12-02T03:21:55.314720", "MEAN_MOTION": 14.28560848, "ECCENTRICITY": 0.0029313, "INCLINATION": 99.4135, "RA_OF_ASC_NODE": 35.496, "ARG_OF_PERICENTER": 92.1193, "MEAN_ANOMALY": 296.8542, "EPHEMERIS_TYPE": 0, "CLASSIFICATION_TYPE": "U", "NORAD_CAT_ID": 31088, "ELEMENT_SET_NO": 999, "REV_AT_EPOCH": 96398, "BSTAR": 0.0019068, "MEAN_MOTION_DOT": 4.757e-05, "MEAN_MOTION_DDOT": 0}, "tle": {"line1": "1 31088U 99025BGJ 25336.14022355  .00004757  00000+0  19068-2 0  9994", "line2": "2 31088  99.4135  35.4960 0029313  92.1193 296.8542 14.28560848963980"}}, "geometry": {"type": "Point", "coordinates": [-146.09726876814346, -11.47130335906272]}}, {"type": "Feature", "properties": {"norad_id": 31089, "name": "FENGYUN 1C DEB", "group": "fengyun-1c-debris", "lat": -18.986619557451803, "lon": 122.02332849504, "alt_km": 966.2198177805822, "timestamp": "2025-12-02T10:50:47.554552+00:00", "meta": {"OBJECT_NAME": "FENGYUN 1C DEB", "OBJECT_ID": "1999-025BGK", "EPOCH": "2025-12-01T09:07:49.380096", "MEAN_MOTION": 13.88281458, "ECCENTRICITY": 0.02056627, "INCLINATION": 98.9488, "RA_OF_ASC_NODE": 117.8872, "ARG_OF_PERICENTER": 242.4516, "MEAN_ANOMALY": 143.828, "EPHEMERIS_TYPE": 0, "CLASSIFICATION_TYPE": "U", "NORAD_CAT_ID": 31089, "ELEMENT_SET_NO": 999, "REV_AT_EPOCH": 67902, "BSTAR": 0.00085311791, "MEAN_MOTION_DOT": 1.165e-05, "MEAN_MOTION_DDOT": 0}, "tle": {"line1": "1 31089U 99025BGK 25335.38043264  .00001165  00000+0  85312-3 0  9998", "line2": "2 31089  98.9488 117.8872 0205662 242.4516 143.8280 13.88281458679026"}}, "geometry": {"type": "Point", "coordinates": [122.02332849504, -18.986619557451803]}}, {"type": "Feature", "properties": {"norad_id": 31090, "name": "FENGYUN 1C DEB", "group": "fengyun-1c-debris", "lat": 59.11425538026846, "lon": -86.35600190639778, "alt_km": 438.9690405012607, "timestamp": "2025-12-02T10:50:47.554562+00:00", "meta": {"OBJECT_NAME": "FENGYUN 1C DEB", "OBJECT_ID": "1999-025BGL", "EPOCH": "2025-12-01T06:05:56.425056", "MEAN_MOTION": 15.31411264, "ECCENTRICITY": 0.0058572, "INCLINATION": 98.9852, "RA_OF_ASC_NODE": 76.8547, "ARG_OF_PERICENTER": 172.6305, "MEAN_ANOMALY": 187.5806, "EPHEMERIS_TYPE": 0, "CLASSIFICATION_TYPE": "U", "NORAD_CAT_ID": 31090, "ELEMENT_SET_NO": 999, "REV_AT_EPOCH": 662, "BSTAR": 0.0020913, "MEAN_MOTION_DOT": 0.00067329, "MEAN_MOTION_DDOT": 0}, "tle": {"line1": "1 31090U 99025BGL 25335.25412529  .00067329  00000+0  20913-2 0  9999", "line2": "2 31090  98.9852  76.8547 0058572 172.6305 187.5806 15.31411264  6621"}}, "geometry": {"type": "Point", "coordinates": [-86.35600190639778, 59.11425538026846]}}]}